CHUANGXIN 1-02 (CX-1-02)
1 33434U 08056B   26130.23777301  .00000073  00000+0  45371-4 0  9991
2 33434  98.6164 156.8787 0013042 250.5971 109.3802 14.30145381913190
STARS (KUKAI)           
1 33498U 09002G   26130.08399929  .00002111  00000+0  19628-3 0  9992
2 33498  98.1531  75.8517 0007029 303.8982  56.1568 14.95490223932789
KKS-1 (KISEKI)          
1 33499U 09002H   26130.20431509  .00000908  00000+0  11846-3 0  9994
2 33499  98.1193  52.0475 0009169  58.9624 301.2488 14.83024178930560
UK-DMC 2                
1 35683U 09041C   26129.92334036  .00000326  00000+0  54638-4 0  9999
2 35683  97.8779 265.8388 0001669  81.3008 278.8391 14.75967179900920
OCEANSAT-2              
1 35931U 09051A   26129.95449946 -.00000015  00000+0  15707-4 0  9996
2 35931  98.2298 120.6271 0015313 349.0856  10.9976 13.99647939873985
SWISSCUBE               
1 35932U 09051B   26129.99072202  .00000705  00000+0  14912-3 0  9999
2 35932  98.4060  37.2119 0006413 343.7637  16.3357 14.62406542883571
BEESAT-1                
1 35933U 09051C   26129.70661936  .00000613  00000+0  13314-3 0  9990
2 35933  98.3987  36.6382 0005285   2.2534 357.8689 14.61656665883565
ITUPSAT1                
1 35935U 09051E   26129.66389669  .00000561  00000+0  12595-3 0  9999
2 35935  98.4072  35.8272 0007696   8.7174 351.4158 14.60381705883112
DMSP 5D-3 F18 (USA 210) 
1 35951U 09057A   26129.88345637  .00000217  00000+0  13545-3 0  9998
2 35951  98.9024 110.7404 0011220   6.2982 353.8330 14.14874586854175
PROBA-2                 
1 36037U 09059B   26129.93229047  .00000124  00000+0  39522-4 0  9999
2 36037  98.2451 313.8163 0014113  43.3542 316.8763 14.54845968875969
YAOGAN-7                
1 36110U 09069A   26129.63485674  .00000322  00000+0  51781-4 0  9990
2 36110  98.0117  15.7315 0024990 160.5286 199.6885 14.77970916883931
XIWANG-1 (HOPE-1)       
1 36122U 09072B   26129.94032950 -.00000101  00000+0 -14695-3 0  9995
2 36122 100.4005  84.3885 0007215 326.1682  33.8970 13.16437171787977
COSMOS 2463             
1 36519U 10017A   26129.90462579  .00000066  00000+0  56385-4 0  9997
2 36519  82.9582 277.8360 0035073 234.9969 239.0297 13.71663111802689
CARTOSAT-2B             
1 36795U 10035A   26129.97023251  .00000499  00000+0  75368-4 0  9992
2 36795  97.9979 180.7578 0010472 320.3576  39.6868 14.78613333854206
TISAT 1                 
1 36799U 10035E   26129.81530306  .00013582  00000+0  46645-3 0  9995
2 36799  98.0691  73.0133 0003805  59.1420 301.0192 15.30261123861839
YAOGAN-10               
1 36834U 10038A   26130.01761036  .00001015  00000+0  12463-3 0  9997
2 36834  97.9006 153.7251 0001373  92.5223 323.3292 14.85229566851543
SHIJIAN-6 04B (SJ-6 04B)
1 37180U 10051B   26129.98108800  .00000156  00000+0  17837-4 0  9991
2 37180  97.8744 135.0018 0012918  74.6136 285.6513 14.99260578849952
FENGYUN 3B              
1 37214U 10059A   26129.98520089  .00000167  00000+0  10970-3 0  9996
2 37214  98.9649 175.8317 0021106 296.4797 180.9075 14.14833110802028
COSMO-SKYMED 4          
1 37216U 10060A   26129.96275470  .00000373  00000+0  53358-4 0  9996
2 37216  97.8892 314.1166 0001422  80.3016 279.8358 14.82153382838900
O/OREOS (USA 219)       
1 37224U 10062C   26129.82025450  .00001287  00000+0  12783-3 0  9994
2 37224  71.9686 167.2348 0013247 146.3481 213.8534 14.93584647110911
RESOURCESAT-2           
1 37387U 11015A   26129.94162932  .00000053  00000+0  44534-4 0  9993
2 37387  98.7656 197.6438 0011385  14.0703 346.0789 14.21603663780747
YOUTHSAT                
1 37388U 11015B   26129.90432701  .00000145  00000+0  78714-4 0  9993
2 37388  98.3664 105.6904 0015736  93.8745 321.0384 14.25613849782180
APRIZESAT 6             
1 37793U 11044F   26129.73088363  .00000424  00000+0  67462-4 0  9995
2 37793  98.2384  39.4427 0042444 207.4638 207.2500 14.76863016791478
JUGNU                   
1 37839U 11058B   26129.85233207  .00000379  00000+0  58324-4 0  9999
2 37839  19.9592 181.3241 0018682  13.6856 159.2618 14.13765259753595
SRMSAT                  
1 37841U 11058D   26129.75875237  .00000383  00000+0  64140-4 0  9994
2 37841  19.9729 292.0727 0011743 140.9492 247.2806 14.11567137752386
