OBJECT_NAME,OBJECT_ID,EPOCH,MEAN_MOTION,ECCENTRICITY,INCLINATION,RA_OF_ASC_NODE,ARG_OF_PERICENTER,MEAN_ANOMALY,EPHEMERIS_TYPE,CLASSIFICATION_TYPE,NORAD_CAT_ID,ELEMENT_SET_NO,REV_AT_EPOCH,BSTAR,MEAN_MOTION_DOT,MEAN_MOTION_DDOT
CHUANGXIN 1-02 (CX-1-02),2008-056B,2026-05-10T05:42:23.588064,14.30145381,.0013042,98.6164,156.8787,250.5971,109.3802,0,U,33434,999,91319,.45371E-4,.73E-6,0
STARS (KUKAI),2009-002G,2026-05-10T02:00:57.538656,14.95490223,.0007029,98.1531,75.8517,303.8982,56.1568,0,U,33498,999,93278,.19628E-3,.2111E-4,0
KKS-1 (KISEKI),2009-002H,2026-05-10T04:54:12.823776,14.83024178,.0009169,98.1193,52.0475,58.9624,301.2488,0,U,33499,999,93056,.11846E-3,.908E-5,0
UK-DMC 2,2009-041C,2026-05-09T22:09:36.607104,14.75967179,.00016692,97.8779,265.8388,81.3008,278.8391,0,U,35683,999,90092,.5463829E-4,.326E-5,0
OCEANSAT-2,2009-051A,2026-05-09T22:54:28.753344,13.99647939,.00153137,98.2298,120.6271,349.0856,10.9976,0,U,35931,999,87398,.15706775E-4,-.15E-6,0
SWISSCUBE,2009-051B,2026-05-09T23:46:38.382528,14.62406542,.00064137,98.4060,37.2119,343.7637,16.3357,0,U,35932,999,88357,.14912393E-3,.705E-5,0
BEESAT-1,2009-051C,2026-05-09T16:57:31.912704,14.61656665,.00052855,98.3987,36.6382,2.2534,357.8689,0,U,35933,999,88356,.13314044E-3,.613E-5,0
ITUPSAT1,2009-051E,2026-05-09T15:56:00.674016,14.60381705,.0007696,98.4072,35.8272,8.7174,351.4158,0,U,35935,999,88311,.12595243E-3,.561E-5,0
DMSP 5D-3 F18 (USA 210),2009-057A,2026-05-09T21:12:10.630368,14.14874586,.00112209,98.9024,110.7404,6.2982,353.8330,0,U,35951,999,85417,.13545246E-3,.217E-5,0
PROBA-2,2009-059B,2026-05-09T22:22:29.896608,14.54845968,.00141139,98.2451,313.8163,43.3542,316.8763,0,U,36037,999,87596,.39521866E-4,.124E-5,0
YAOGAN-7,2009-069A,2026-05-09T15:14:11.622336,14.77970916,.00249907,98.0117,15.7315,160.5286,199.6885,0,U,36110,999,88393,.51781331E-4,.322E-5,0
XIWANG-1 (HOPE-1),2009-072B,2026-05-09T22:34:04.468800,13.16437171,.00072159,100.4005,84.3885,326.1682,33.8970,0,U,36122,999,78797,-.1469486E-3,-.101E-5,0
COSMOS 2463,2010-017A,2026-05-09T21:42:39.668256,13.71663111,.00350737,82.9582,277.8360,234.9969,239.0297,0,U,36519,999,80268,.56384619E-4,.66E-6,0
CARTOSAT-2B,2010-035A,2026-05-09T23:17:08.088864,14.78613333,.00104727,97.9979,180.7578,320.3576,39.6868,0,U,36795,999,85420,.75368065E-4,.499E-5,0
TISAT 1,2010-035E,2026-05-09T19:34:02.184384,15.30261123,.00038054,98.0691,73.0133,59.1420,301.0192,0,U,36799,999,86183,.46644535E-3,.13582E-3,0
YAOGAN-10,2010-038A,2026-05-10T00:25:21.535104,14.85229566,.00013739,97.9006,153.7251,92.5223,323.3292,0,U,36834,999,85154,.12463137E-3,.1015E-4,0
SHIJIAN-6 04B (SJ-6 04B),2010-051B,2026-05-09T23:32:46.003200,14.99260578,.00129185,97.8744,135.0018,74.6136,285.6513,0,U,37180,999,84995,.17837255E-4,.156E-5,0
FENGYUN 3B,2010-059A,2026-05-09T23:38:41.356896,14.14833110,.00211067,98.9649,175.8317,296.4797,180.9075,0,U,37214,999,80202,.10970238E-3,.167E-5,0
COSMO-SKYMED 4,2010-060A,2026-05-09T23:06:22.006080,14.82153382,.00014228,97.8892,314.1166,80.3016,279.8358,0,U,37216,999,83890,.53357958E-4,.373E-5,0
O/OREOS (USA 219),2010-062C,2026-05-09T19:41:09.988800,14.93584647,.00132471,71.9686,167.2348,146.3481,213.8534,0,U,37224,999,11091,.12782581E-3,.1287E-4,0
RESOURCESAT-2,2011-015A,2026-05-09T22:35:56.773248,14.21603663,.00113859,98.7656,197.6438,14.0703,346.0789,0,U,37387,999,78074,.44534125E-4,.53E-6,0
YOUTHSAT,2011-015B,2026-05-09T21:42:13.853664,14.25613849,.0015736,98.3664,105.6904,93.8745,321.0384,0,U,37388,999,78218,.78713658E-4,.145E-5,0
APRIZESAT 6,2011-044F,2026-05-09T17:32:28.345632,14.76863016,.00424444,98.2384,39.4427,207.4638,207.2500,0,U,37793,999,79147,.67461615E-4,.424E-5,0
JUGNU,2011-058B,2026-05-09T20:27:21.490848,14.13765259,.00186829,19.9592,181.3241,13.6856,159.2618,0,U,37839,999,75359,.58324205E-4,.379E-5,0
SRMSAT,2011-058D,2026-05-09T18:12:36.204768,14.11567137,.00117439,19.9729,292.0727,140.9492,247.2806,0,U,37841,999,75238,.64139567E-4,.383E-5,0
